ORBVIEW 2 (SEASTAR)     
1 24883U 97037A   17345.90782551  .00000035  00000-0  28461-4 0  9991
2 24883  98.5525  92.3193 0001417 320.2018  39.9062 14.33426744 77110
